{"type": "FeatureCollection", "features": [{"type": "Feature", "properties": {"norad_id": 28890, "name": "BEIJING 1", "group": "dmc", "lat": 27.654713992075536, "lon": 112.31107341615956, "alt_km": 684.1151670636955, "timestamp": "2025-12-15T04:01:20.109452+00:00", "meta": {"OBJECT_NAME": "BEIJING 1", "OBJECT_ID": "2005-043A", "EPOCH": "2025-12-14T08:12:08.357760", "MEAN_MOTION": 14.63369357, "ECCENTRICITY": 0.00154356, "INCLINATION": 98.2648, "RA_OF_ASC_NODE": 115.8518, "ARG_OF_PERICENTER": 136.4912, "MEAN_ANOMALY": 223.751, "EPHEMERIS_TYPE": 0, "CLASSIFICATION_TYPE": "U", "NORAD_CAT_ID": 28890, "ELEMENT_SET_NO": 999, "REV_AT_EPOCH": 7361, "BSTAR": 0.00015353052, "MEAN_MOTION_DOT": 7.46e-06, "MEAN_MOTION_DDOT": 0}, "tle": {"line1": "1 28890U 05043A   25348.34176340  .00000746  00000+0  15353-3 0  9995", "line2": "2 28890  98.2648 115.8518 0015435 136.4912 223.7510 14.63369357 73613"}}, "geometry": {"type": "Point", "coordinates": [112.31107341615956, 27.654713992075536]}}, {"type": "Feature", "properties": {"norad_id": 33320, "name": "HUANJING 1A (HJ-1A)", "group": "dmc", "lat": -49.713809594366204, "lon": 148.23627500818878, "alt_km": 638.3486206900488, "timestamp": "2025-12-15T04:01:20.109476+00:00", "meta": {"OBJECT_NAME": "HUANJING 1A (HJ-1A)", "OBJECT_ID": "2008-041A", "EPOCH": "2025-12-14T07:33:38.803680", "MEAN_MOTION": 14.83403164, "ECCENTRICITY": 0.00200469, "INCLINATION": 97.6542, "RA_OF_ASC_NODE": 336.548, "ARG_OF_PERICENTER": 29.4047, "MEAN_ANOMALY": 330.8291, "EPHEMERIS_TYPE": 0, "CLASSIFICATION_TYPE": "U", "NORAD_CAT_ID": 33320, "ELEMENT_SET_NO": 999, "REV_AT_EPOCH": 93099, "BSTAR": 0.00033944878, "MEAN_MOTION_DOT": 2.744e-05, "MEAN_MOTION_DDOT": 0}, "tle": {"line1": "1 33320U 08041A   25348.31503245  .00002744  00000+0  33945-3 0  9992", "line2": "2 33320  97.6542 336.5480 0020046  29.4047 330.8291 14.83403164930993"}}, "geometry": {"type": "Point", "coordinates": [148.23627500818878, -49.713809594366204]}}, {"type": "Feature", "properties": {"norad_id": 33321, "name": "HUANJING 1B (HJ-1B)", "group": "dmc", "lat": 81.6199249911763, "lon": -84.62010886240654, "alt_km": 587.6112649794286, "timestamp": "2025-12-15T04:01:20.109491+00:00", "meta": {"OBJECT_NAME": "HUANJING 1B (HJ-1B)", "OBJECT_ID": "2008-041B", "EPOCH": "2025-12-14T08:12:05.808960", "MEAN_MOTION": 14.82829786, "ECCENTRICITY": 0.00381906, "INCLINATION": 97.6403, "RA_OF_ASC_NODE": 340.2665, "ARG_OF_PERICENTER": 70.6162, "MEAN_ANOMALY": 289.9174, "EPHEMERIS_TYPE": 0, "CLASSIFICATION_TYPE": "U", "NORAD_CAT_ID": 33321, "ELEMENT_SET_NO": 999, "REV_AT_EPOCH": 93101, "BSTAR": 0.00031514864, "MEAN_MOTION_DOT": 2.532e-05, "MEAN_MOTION_DDOT": 0}, "tle": {"line1": "1 33321U 08041B   25348.34173390  .00002532  00000+0  31515-3 0  9996", "line2": "2 33321  97.6403 340.2665 0038190  70.6162 289.9174 14.82829786931011"}}, "geometry": {"type": "Point", "coordinates": [-84.62010886240654, 81.6199249911763]}}, {"type": "Feature", "properties": {"norad_id": 33446, "name": "YAOGAN-4", "group": "dmc", "lat": -3.0950411657653, "lon": -80.3258524650615, "alt_km": 617.2398367907408, "timestamp": "2025-12-15T04:01:20.109503+00:00", "meta": {"OBJECT_NAME": "YAOGAN-4", "OBJECT_ID": "2008-061A", "EPOCH": "2025-12-14T06:58:50.323872", "MEAN_MOTION": 14.82689567, "ECCENTRICITY": 0.00134687, "INCLINATION": 97.9179, "RA_OF_ASC_NODE": 278.375, "ARG_OF_PERICENTER": 317.8799, "MEAN_ANOMALY": 42.1378, "EPHEMERIS_TYPE": 0, "CLASSIFICATION_TYPE": "U", "NORAD_CAT_ID": 33446, "ELEMENT_SET_NO": 999, "REV_AT_EPOCH": 91826, "BSTAR": 0.0002615583, "MEAN_MOTION_DOT": 2.059e-05, "MEAN_MOTION_DDOT": 0}, "tle": {"line1": "1 33446U 08061A   25348.29086023  .00002059  00000+0  26156-3 0  9995", "line2": "2 33446  97.9179 278.3750 0013468 317.8799  42.1378 14.82689567918269"}}, "geometry": {"type": "Point", "coordinates": [-80.3258524650615, -3.0950411657653]}}, {"type": "Feature", "properties": {"norad_id": 35681, "name": "DEIMOS-1", "group": "dmc", "lat": 58.26207760498791, "lon": 136.99716480315618, "alt_km": 637.8357876589662, "timestamp": "2025-12-15T04:01:20.109515+00:00", "meta": {"OBJECT_NAME": "DEIMOS-1", "OBJECT_ID": "2009-041A", "EPOCH": "2025-12-14T08:13:02.540928", "MEAN_MOTION": 14.74956194, "ECCENTRICITY": 0.00027288, "INCLINATION": 97.7149, "RA_OF_ASC_NODE": 148.8708, "ARG_OF_PERICENTER": 77.8357, "MEAN_ANOMALY": 282.3159, "EPHEMERIS_TYPE": 0, "CLASSIFICATION_TYPE": "U", "NORAD_CAT_ID": 35681, "ELEMENT_SET_NO": 999, "REV_AT_EPOCH": 87963, "BSTAR": 0.00015765579, "MEAN_MOTION_DOT": 1.012e-05, "MEAN_MOTION_DDOT": 0}, "tle": {"line1": "1 35681U 09041A   25348.34239052  .00001012  00000+0  15766-3 0  9998", "line2": "2 35681  97.7149 148.8708 0002728  77.8357 282.3159 14.74956194879637"}}, "geometry": {"type": "Point", "coordinates": [136.99716480315618, 58.26207760498791]}}, {"type": "Feature", "properties": {"norad_id": 35683, "name": "UK-DMC 2", "group": "dmc", "lat": 77.39323729731271, "lon": 85.87949190584644, "alt_km": 634.8905731638633, "timestamp": "2025-12-15T04:01:20.109525+00:00", "meta": {"OBJECT_NAME": "UK-DMC 2", "OBJECT_ID": "2009-041C", "EPOCH": "2025-12-14T08:07:53.937408", "MEAN_MOTION": 14.75627536, "ECCENTRICITY": 0.00014718, "INCLINATION": 97.8557, "RA_OF_ASC_NODE": 123.1958, "ARG_OF_PERICENTER": 98.5747, "MEAN_ANOMALY": 261.5629, "EPHEMERIS_TYPE": 0, "CLASSIFICATION_TYPE": "U", "NORAD_CAT_ID": 35683, "ELEMENT_SET_NO": 999, "REV_AT_EPOCH": 87930, "BSTAR": 0.00023462418, "MEAN_MOTION_DOT": 1.552e-05, "MEAN_MOTION_DDOT": 0}, "tle": {"line1": "1 35683U 09041C   25348.33881872  .00001552  00000+0  23462-3 0  9993", "line2": "2 35683  97.8557 123.1958 0001471  98.5747 261.5629 14.75627536879304"}}, "geometry": {"type": "Point", "coordinates": [85.87949190584644, 77.39323729731271]}}, {"type": "Feature", "properties": {"norad_id": 40715, "name": "DMC3-FM1", "group": "dmc", "lat": -34.44563335444981, "lon": 30.968305355518634, "alt_km": 618.8719589541779, "timestamp": "2025-12-15T04:01:20.109536+00:00", "meta": {"OBJECT_NAME": "DMC3-FM1", "OBJECT_ID": "2015-032A", "EPOCH": "2025-12-14T07:39:29.447712", "MEAN_MOTION": 14.85443852, "ECCENTRICITY": 0.00045636, "INCLINATION": 97.6691, "RA_OF_ASC_NODE": 215.4539, "ARG_OF_PERICENTER": 315.136, "MEAN_ANOMALY": 44.9486, "EPHEMERIS_TYPE": 0, "CLASSIFICATION_TYPE": "U", "NORAD_CAT_ID": 40715, "ELEMENT_SET_NO": 999, "REV_AT_EPOCH": 56246, "BSTAR": 0.00014452494, "MEAN_MOTION_DOT": 1.194e-05, "MEAN_MOTION_DDOT": 0}, "tle": {"line1": "1 40715U 15032A   25348.31909083  .00001194  00000+0  14452-3 0  9996", "line2": "2 40715  97.6691 215.4539 0004563 315.1360  44.9486 14.85443852562465"}}, "geometry": {"type": "Point", "coordinates": [30.968305355518634, -34.44563335444981]}}, {"type": "Feature", "properties": {"norad_id": 40716, "name": "DMC3-FM2", "group": "dmc", "lat": 81.05346701059247, "lon": 96.65473077717377, "alt_km": 607.3457638656209, "timestamp": "2025-12-15T04:01:20.109547+00:00", "meta": {"OBJECT_NAME": "DMC3-FM2", "OBJECT_ID": "2015-032B", "EPOCH": "2025-12-14T08:11:52.823904", "MEAN_MOTION": 14.85448042, "ECCENTRICITY": 0.00051447, "INCLINATION": 97.6751, "RA_OF_ASC_NODE": 216.9207, "ARG_OF_PERICENTER": 321.0254, "MEAN_ANOMALY": 39.059, "EPHEMERIS_TYPE": 0, "CLASSIFICATION_TYPE": "U", "NORAD_CAT_ID": 40716, "ELEMENT_SET_NO": 999, "REV_AT_EPOCH": 56246, "BSTAR": 0.0001966034, "MEAN_MOTION_DOT": 1.644e-05, "MEAN_MOTION_DDOT": 0}, "tle": {"line1": "1 40716U 15032B   25348.34158361  .00001644  00000+0  19660-3 0  9991", "line2": "2 40716  97.6751 216.9207 0005144 321.0254  39.0590 14.85448042562462"}}, "geometry": {"type": "Point", "coordinates": [96.65473077717377, 81.05346701059247]}}, {"type": "Feature", "properties": {"norad_id": 40717, "name": "DMC3-FM3", "group": "dmc", "lat": -21.012731122884656, "lon": -137.6768973928312, "alt_km": 614.5154128640224, "timestamp": "2025-12-15T04:01:20.109558+00:00", "meta": {"OBJECT_NAME": "DMC3-FM3", "OBJECT_ID": "2015-032C", "EPOCH": "2025-12-14T08:43:02.169984", "MEAN_MOTION": 14.85434603, "ECCENTRICITY": 0.00045473, "INCLINATION": 97.6805, "RA_OF_ASC_NODE": 218.5758, "ARG_OF_PERICENTER": 323.0975, "MEAN_ANOMALY": 36.9927, "EPHEMERIS_TYPE": 0, "CLASSIFICATION_TYPE": "U", "NORAD_CAT_ID": 40717, "ELEMENT_SET_NO": 999, "REV_AT_EPOCH": 56247, "BSTAR": 0.00011259389, "MEAN_MOTION_DOT": 9.19e-06, "MEAN_MOTION_DDOT": 0}, "tle": {"line1": "1 40717U 15032C   25348.36321956  .00000919  00000+0  11259-3 0  9996", "line2": "2 40717  97.6805 218.5758 0004547 323.0975  36.9927 14.85434603562479"}}, "geometry": {"type": "Point", "coordinates": [-137.6768973928312, -21.012731122884656]}}]}